0 COSMOS 1275 DEB
1 29295U 81053MY  13280.81682854  .00000832  00000-0  91462-3 0  2834
2 29295 082.9688 306.4506 0121863 145.8233 215.0870 13.67896295367219
0 COSMOS 1275 DEB
1 29295U 81053MY  13286.81483895  .00000670  00000-0  73282-3 0  2856
2 29295 082.9655 302.0673 0120887 129.1666 232.0010 13.67902875368038
0 COSMOS 1275 DEB
1 29295U 81053MY  13289.30180998  .00000688  00000-0  75296-3 0  2868
2 29295 082.9653 300.2531 0120884 122.3668 238.9253 13.67906445368371
0 COSMOS 1275 DEB
1 29295U 81053MY  13291.71562063  .00000688  00000-0  75296-3 0  2874
2 29295 082.9653 298.4919 0120881 115.7117 245.6574 13.67909684368707
0 COSMOS 1275 DEB
1 29295U 81053MY  13294.71458469  .00000688  00000-0  75296-3 0  2882
2 29295 082.9653 296.3037 0120878 107.4432 253.9977 13.67913707369115
